NORAD_CAT_ID,OBJECT_NAME,OBJECT_TYPE,EPOCH,MEAN_MOTION,ECCENTRICITY,INCLINATION,RA_OF_ASC_NODE,ARG_OF_PERICENTER,MEAN_ANOMALY,BSTAR,MEAN_MOTION_DOT,MEAN_MOTION_DDOT,TLE_LINE0,TLE_LINE1,TLE_LINE2,SEMIMAJOR_AXIS,PERIOD,APOGEE,PERIGEE,DECAYED
53851.0,STARLINK-4755,PAYLOAD,2023-12-24 20:55:00,15.08834423,0.0001311,53.2199,311.3545,125.168,234.9435,-6.0881e-06,-3.85e-06,0.0,0 STARLINK-4755,1 53851U 22114AK  23358.87153599 -.00000385  00000-0 -60881-5 0  9996,2 53851  53.2199 311.3545 0001311 125.1680 234.9435 15.08834423 70784,6917.897,95.438,540.669,538.855,0.0
53851.0,STARLINK-4755,PAYLOAD,2023-12-25 03:16:32,15.08843364,0.000192,53.2196,310.17,112.2426,247.877,6.8875e-05,8.08e-06,0.0,0 STARLINK-4755,1 53851U 22114AK  23359.13648933  .00000808  00000-0  68875-4 0  9995,2 53851  53.2196 310.1700 0001920 112.2426 247.8770 15.08843364 70826,6917.87,95.437,541.063,538.407,0.0
53851.0,STARLINK-4755,PAYLOAD,2023-12-25 06:27:18,15.08852062,0.000188,53.2193,309.5706,121.9598,238.1577,9.9073e-05,1.289e-05,0.0,0 STARLINK-4755,1 53851U 22114AK  23359.26896104  .00001289  00000-0  99073-4 0  9992,2 53851  53.2193 309.5706 0001880 121.9598 238.1577 15.08852062 70848,6917.844,95.437,541.009,538.408,0.0
53851.0,STARLINK-4755,PAYLOAD,2023-12-25 20:45:47,15.0883821,0.0001048,53.2188,306.8927,114.6876,245.4226,-0.00013252,-2.396e-05,0.0,0 STARLINK-4755,1 53851U 22114AK  23359.86513792 -.00002396  00000-0 -13252-3 0  9993,2 53851  53.2188 306.8927 0001048 114.6876 245.4226 15.08838210 71472,6917.886,95.438,540.476,539.026,0.0
53851.0,STARLINK-4755,PAYLOAD,2023-12-26 03:07:19,15.08846715,0.0001437,53.2185,305.7082,105.5477,254.5674,-7.3823e-05,-1.463e-05,0.0,0 STARLINK-4755,1 53851U 22114AK  23360.13009087 -.00001463  00000-0 -73823-4 0  9997,2 53851  53.2185 305.7082 0001437 105.5477 254.5674 15.08846715 70978,6917.86,95.437,540.719,538.731,0.0
53851.0,STARLINK-4755,PAYLOAD,2023-12-26 06:18:05,15.08851433,0.000141,53.218,305.1097,106.0645,254.0502,-6.925e-07,-2.99e-06,0.0,0 STARLINK-4755,1 53851U 22114AK  23360.26256579 -.00000299  00000-0 -69250-6 0  9998,2 53851  53.2180 305.1097 0001410 106.0645 254.0502 15.08851433 71538,6917.845,95.437,540.686,538.735,0.0
53851.0,STARLINK-4755,PAYLOAD,2023-12-27 02:58:06,15.08849079,0.0001446,53.2175,301.2421,96.0046,264.1111,3.1643e-05,2.16e-06,0.0,0 STARLINK-4755,1 53851U 22114AK  23361.12368657  .00000216  00000-0  31643-4 0  9995,2 53851  53.2175 301.2421 0001446  96.0046 264.1111 15.08849079 71128,6917.853,95.437,540.718,538.717,0.0
53851.0,STARLINK-4755,PAYLOAD,2023-12-27 20:27:21,15.08837668,0.0001494,53.2177,297.9717,102.4806,257.6353,2.6045e-05,1.27e-06,0.0,0 STARLINK-4755,1 53851U 22114AK  23361.85233712  .00000127  00000-0  26045-4 0  9999,2 53851  53.2177 297.9717 0001494 102.4806 257.6353 15.08837668 71236,6917.888,95.438,540.786,538.719,0.0
53851.0,STARLINK-4755,PAYLOAD,2023-12-28 02:48:54,15.08840111,0.0001362,53.2175,296.7824,100.1156,259.999,3.929e-05,3.37e-06,0.0,0 STARLINK-4755,1 53851U 22114AK  23362.11729476  .00000337  00000-0  39290-4 0  9995,2 53851  53.2175 296.7824 0001362 100.1156 259.9990 15.08840111 71810,6917.88,95.438,540.687,538.803,0.0
53851.0,STARLINK-4755,PAYLOAD,2023-12-28 20:18:09,15.08838415,0.0001333,53.2175,293.5119,95.9165,264.1979,-1.3062e-05,-4.96e-06,0.0,0 STARLINK-4755,1 53851U 22114AK  23362.84594010 -.00000496  00000-0 -13062-4 0  9996,2 53851  53.2175 293.5119 0001333  95.9165 264.1979 15.08838415 71922,6917.885,95.438,540.672,538.828,0.0
53851.0,STARLINK-4755,PAYLOAD,2023-12-29 02:39:40,15.08849672,0.0001301,53.2178,292.326,95.3243,264.7898,7.0013e-05,8.27e-06,0.0,0 STARLINK-4755,1 53851U 22114AK  23363.11088940  .00000827  00000-0  70013-4 0  9992,2 53851  53.2178 292.3260 0001301  95.3243 264.7898 15.08849672 71423,6917.851,95.437,540.616,538.816,0.0
53851.0,STARLINK-4755,PAYLOAD,2023-12-30 04:05:51,15.08843103,0.0001255,53.2176,287.5653,96.5566,263.5569,0.00011089,1.478e-05,0.0,0 STARLINK-4755,1 53851U 22114AK  23364.17073568  .00001478  00000-0  11089-3 0  9999,2 53851  53.2176 287.5653 0001255  96.5566 263.5569 15.08843103 71584,6917.871,95.437,540.604,538.868,0.0
53851.0,STARLINK-4755,PAYLOAD,2023-12-30 05:41:14,15.08843211,0.000124,53.2176,287.2689,93.2847,266.8287,0.00011899,1.607e-05,0.0,0 STARLINK-4755,1 53851U 22114AK  23364.23697542  .00001607  00000-0  11899-3 0  9993,2 53851  53.2176 287.2689 0001240  93.2847 266.8287 15.08843211 72135,6917.871,95.437,540.593,538.878,0.0
53851.0,STARLINK-4755,PAYLOAD,2023-12-30 18:24:20,15.0883772,0.0001534,53.2182,284.8881,97.4114,262.7053,1.1404e-05,-1.07e-06,0.0,0 STARLINK-4755,1 53851U 22114AK  23364.76690531 -.00000107  00000-0  11404-4 0  9990,2 53851  53.2182 284.8881 0001534  97.4114 262.7053 15.08837720 71670,6917.887,95.438,540.814,538.691,0.0
53851.0,STARLINK-4755,PAYLOAD,2023-12-31 03:56:38,15.08843639,0.0001508,53.2181,283.1074,91.2491,268.8674,5.6652e-05,6.14e-06,0.0,0 STARLINK-4755,1 53851U 22114AK  23365.16433970  .00000614  00000-0  56652-4 0  9993,2 53851  53.2181 283.1074 0001508  91.2491 268.8674 15.08843639 71735,6917.869,95.437,540.777,538.691,0.0
53851.0,STARLINK-4755,PAYLOAD,2024-01-01 03:47:25,15.08845373,0.0001501,53.2177,278.6458,83.6799,276.4364,5.1793e-05,5.37e-06,0.0,0 STARLINK-4755,1 53851U 22114AK  24001.15793883  .00000537  00000-0  51793-4 0  9997,2 53851  53.2177 278.6458 0001501  83.6799 276.4364 15.08845373 72429,6917.864,95.437,540.767,538.691,0.0
53851.0,STARLINK-4755,PAYLOAD,2024-01-01 22:52:03,15.08850722,0.0001541,53.2182,275.0753,86.0231,274.0937,4.9006e-05,4.92e-06,0.0,0 STARLINK-4755,1 53851U 22114AK  24001.95281410  .00000492  00000-0  49006-4 0  9997,2 53851  53.2182 275.0753 0001541  86.0231 274.0937 15.08850722 72543,6917.848,95.437,540.779,538.647,0.0
53851.0,STARLINK-4755,PAYLOAD,2024-01-02 00:27:26,15.08850731,0.0001576,53.2177,274.779,84.4219,275.6953,8.7615e-05,1.107e-05,0.0,0 STARLINK-4755,1 53851U 22114AK  24002.01905288  .00001107  00000-0  87615-4 0  9993,2 53851  53.2177 274.7790 0001576  84.4219 275.6953 15.08850731 72017,6917.848,95.437,540.803,538.622,0.0
53851.0,STARLINK-4755,PAYLOAD,2024-01-02 17:56:41,15.08842409,0.0001753,53.2169,271.5117,67.9033,292.2145,9.8484e-05,1.28e-05,0.0,0 STARLINK-4755,1 53851U 22114AK  24002.74769685  .00001280  00000-0  98484-4 0  9990,2 53851  53.2169 271.5117 0001753  67.9033 292.2145 15.08842409 72126,6917.873,95.437,540.951,538.525,0.0
53851.0,STARLINK-4755,PAYLOAD,2024-01-02 22:42:50,15.08845713,0.0001582,53.2173,270.618,92.3439,267.7734,2.5564e-05,1.19e-06,0.0,0 STARLINK-4755,1 53851U 22114AK  24002.94641491  .00000119  00000-0  25564-4 0  9995,2 53851  53.2173 270.6180 0001582  92.3439 267.7734 15.08845713 72697,6917.863,95.437,540.822,538.634,0.0
53851.0,STARLINK-4755,PAYLOAD,2024-01-03 03:28:59,15.08848015,0.0001436,53.2172,269.7243,92.2762,267.8394,4.6943e-05,4.59e-06,0.0,0 STARLINK-4755,1 53851U 22114AK  24003.14513166  .00000459  00000-0  46943-4 0  9996,2 53851  53.2172 269.7243 0001436  92.2762 267.8394 15.08848015 72726,6917.856,95.437,540.714,538.727,0.0
53851.0,STARLINK-4755,PAYLOAD,2024-01-03 22:33:37,15.08842134,0.0001407,53.217,266.1549,99.0923,261.0228,-0.00011676,-2.146e-05,0.0,0 STARLINK-4755,1 53851U 22114AK  24003.94001994 -.00002146  00000-0 -11676-3 0  9996,2 53851  53.2170 266.1549 0001407  99.0923 261.0228 15.08842134 72847,6917.874,95.437,540.712,538.766,0.0
53851.0,STARLINK-4755,PAYLOAD,2024-01-04 00:09:00,15.0884229,0.0001431,53.2168,265.8576,98.7253,261.3902,-0.00010259,-1.92e-05,0.0,0 STARLINK-4755,1 53851U 22114AK  24004.00625925 -.00001920  00000-0 -10259-3 0  9995,2 53851  53.2168 265.8576 0001431  98.7253 261.3902 15.08842290 72316,6917.873,95.437,540.728,538.748,0.0
53851.0,STARLINK-4755,PAYLOAD,2024-01-04 22:24:24,15.08838227,0.0001323,53.2166,261.6916,101.0025,259.1116,-2.6658e-05,-7.12e-06,0.0,0 STARLINK-4755,1 53851U 22114AK  24004.93362047 -.00000712  00000-0 -26658-4 0  9999,2 53851  53.2166 261.6916 0001323 101.0025 259.1116 15.08838227 72992,6917.886,95.438,540.666,538.836,0.0
53851.0,STARLINK-4755,PAYLOAD,2024-01-04 23:59:47,15.08837937,0.0001434,53.2167,261.3977,96.3701,263.7455,2.2307e-06,-2.52e-06,0.0,0 STARLINK-4755,1 53851U 22114AK  24004.99986027 -.00000252  00000-0  22307-5 0  9991,2 53851  53.2167 261.3977 0001434  96.3701 263.7455 15.08837937 73004,6917.887,95.438,540.744,538.76,0.0
53851.0,STARLINK-4755,PAYLOAD,2024-01-05 22:15:12,15.08832875,0.0001459,53.217,257.2363,100.1175,259.9982,5.213e-05,5.42e-06,0.0,0 STARLINK-4755,1 53851U 22114AK  24005.92722574  .00000542  00000-0  52130-4 0  9997,2 53851  53.2170 257.2363 0001459 100.1175 259.9982 15.08832875 73140,6917.902,95.438,540.776,538.758,0.0
53851.0,STARLINK-4755,PAYLOAD,2024-01-06 03:01:21,15.08835035,0.0001455,53.2167,256.3437,99.7257,260.3899,6.8374e-05,8e-06,0.0,0 STARLINK-4755,1 53851U 22114AK  24006.12594465  .00000800  00000-0  68374-4 0  9990,2 53851  53.2167 256.3437 0001455  99.7257 260.3899 15.08835035 72635,6917.896,95.438,540.767,538.754,0.0
53851.0,STARLINK-4755,PAYLOAD,2024-01-06 22:05:59,15.08838942,0.0001456,53.2165,252.7749,96.4266,263.6892,6.7939e-05,7.93e-06,0.0,0 STARLINK-4755,1 53851U 22114AK  24006.92082443  .00000793  00000-0  67939-4 0  9993,2 53851  53.2165 252.7749 0001456  96.4266 263.6892 15.08838942 73296,6917.884,95.438,540.756,538.741,0.0
53851.0,STARLINK-4755,PAYLOAD,2024-01-07 01:16:45,15.08842056,0.0001472,53.2167,252.18,97.4157,262.7003,8.8257e-05,1.117e-05,0.0,0 STARLINK-4755,1 53851U 22114AK  24007.05330190  .00001117  00000-0  88257-4 0  9990,2 53851  53.2167 252.1800 0001472  97.4157 262.7003 15.08842056 73316,6917.874,95.437,540.757,538.721,0.0
53851.0,STARLINK-4755,PAYLOAD,2024-01-07 20:21:23,15.08836489,0.0001545,53.2172,248.6115,98.9437,261.173,3.7795e-05,3.14e-06,0.0,0 STARLINK-4755,1 53851U 22114AK  24007.84818867  .00000314  00000-0  37795-4 0  9998,2 53851  53.2172 248.6115 0001545  98.9437 261.1730 15.08836489 72894,6917.891,95.438,540.825,538.687,0.0
